[{"CCSDS_OMM_VERS":"3.0","COMMENT":"GENERATED VIA SPACE-TRACK.ORG API","CREATION_DATE":"2025-04-09T17:16:24","ORIGINATOR":"18 SPCS","OBJECT_NAME":"FENGYUN 1C DEB","OBJECT_ID":"1999-025DTW","CENTER_NAME":"EARTH","REF_FRAME":"TEME","TIME_SYSTEM":"UTC","MEAN_ELEMENT_THEORY":"SGP4","EPOCH":"2023-12-25T23:18:47.158560","MEAN_MOTION":"14.18816875","ECCENTRICITY":"0.00593940","INCLINATION":"98.7588","RA_OF_ASC_NODE":"63.9140","ARG_OF_PERICENTER":"95.7645","MEAN_ANOMALY":"265.0306","EPHEMERIS_TYPE":"0","CLASSIFICATION_TYPE":"U","NORAD_CAT_ID":"36197","ELEMENT_SET_NO":"999","REV_AT_EPOCH":"79628","BSTAR":"0.00235000000000","MEAN_MOTION_DOT":"0.00004933","MEAN_MOTION_DDOT":"0.0000000000000","SEMIMAJOR_AXIS":"7207.494","PERIOD":"101.493","APOAPSIS":"872.167","PERIAPSIS":"786.551","OBJECT_TYPE":"DEBRIS","RCS_SIZE":"SMALL","COUNTRY_CODE":"PRC","LAUNCH_DATE":"1999-05-10","SITE":"TSC","DECAY_DATE":null,"FILE":"4696152","GP_ID":"285197747","TLE_LINE0":"0 FENGYUN 1C DEB","TLE_LINE1":"1 36197U 99025DTW 23359.97137915  .00004933  00000-0  23500-2 0  9996","TLE_LINE2":"2 36197  98.7588  63.9140 0059394  95.7645 265.0306 14.18816875796285"},{"CCSDS_OMM_VERS":"3.0","COMMENT":"GENERATED VIA SPACE-TRACK.ORG API","CREATION_DATE":"2026-03-28T11:26:42","ORIGINATOR":"18 SPCS","OBJECT_NAME":"FENGYUN 1C DEB","OBJECT_ID":"1999-025DTX","CENTER_NAME":"EARTH","REF_FRAME":"TEME","TIME_SYSTEM":"UTC","MEAN_ELEMENT_THEORY":"SGP4","EPOCH":"2026-03-28T00:22:41.936160","MEAN_MOTION":"14.08472657","ECCENTRICITY":"0.00979397","INCLINATION":"98.6108","RA_OF_ASC_NODE":"116.6597","ARG_OF_PERICENTER":"175.5149","MEAN_ANOMALY":"184.6922","EPHEMERIS_TYPE":"0","CLASSIFICATION_TYPE":"U","NORAD_CAT_ID":"36198","ELEMENT_SET_NO":"999","REV_AT_EPOCH":"65069","BSTAR":"0.00145519420000","MEAN_MOTION_DOT":"0.00002568","MEAN_MOTION_DDOT":"0.0000000000000","SEMIMAJOR_AXIS":"7242.740","PERIOD":"102.238","APOAPSIS":"935.540","PERIAPSIS":"793.670","OBJECT_TYPE":"DEBRIS","RCS_SIZE":"SMALL","COUNTRY_CODE":"PRC","LAUNCH_DATE":"1999-05-10","SITE":"TSC","DECAY_DATE":null,"FILE":"5103506","GP_ID":"317398709","TLE_LINE0":"0 FENGYUN 1C DEB","TLE_LINE1":"1 36198U 99025DTX 26087.01576315  .00002568  00000-0  14552-2 0  9993","TLE_LINE2":"2 36198  98.6108 116.6597 0097940 175.5149 184.6922 14.08472657650699"},{"CCSDS_OMM_VERS":"3.0","COMMENT":"GENERATED VIA SPACE-TRACK.ORG API","CREATION_DATE":"2026-03-28T11:26:42","ORIGINATOR":"18 SPCS","OBJECT_NAME":"FENGYUN 1C DEB","OBJECT_ID":"1999-025DTY","CENTER_NAME":"EARTH","REF_FRAME":"TEME","TIME_SYSTEM":"UTC","MEAN_ELEMENT_THEORY":"SGP4","EPOCH":"2026-03-27T23:59:32.072928","MEAN_MOTION":"14.29825968","ECCENTRICITY":"0.00929748","INCLINATION":"98.2831","RA_OF_ASC_NODE":"108.0790","ARG_OF_PERICENTER":"115.0105","MEAN_ANOMALY":"246.0768","EPHEMERIS_TYPE":"0","CLASSIFICATION_TYPE":"U","NORAD_CAT_ID":"36199","ELEMENT_SET_NO":"999","REV_AT_EPOCH":"66484","BSTAR":"0.00024305111000","MEAN_MOTION_DOT":"0.00000615","MEAN_MOTION_DDOT":"0.0000000000000","SEMIMAJOR_AXIS":"7170.450","PERIOD":"100.712","APOAPSIS":"858.982","PERIAPSIS":"725.648","OBJECT_TYPE":"DEBRIS","RCS_SIZE":"SMALL","COUNTRY_CODE":"PRC","LAUNCH_DATE":"1999-05-10","SITE":"TSC","DECAY_DATE":null,"FILE":"5103506","GP_ID":"317398210","TLE_LINE0":"0 FENGYUN 1C DEB","TLE_LINE1":"1 36199U 99025DTY 26086.99967677  .00000615  00000-0  24305-3 0  9994","TLE_LINE2":"2 36199  98.2831 108.0790 0092975 115.0105 246.0768 14.29825968664846"},{"CCSDS_OMM_VERS":"3.0","COMMENT":"GENERATED VIA SPACE-TRACK.ORG API","CREATION_DATE":"2026-03-21T13:34:27","ORIGINATOR":"18 SPCS","OBJECT_NAME":"FENGYUN 1C DEB","OBJECT_ID":"1999-025DTZ","CENTER_NAME":"EARTH","REF_FRAME":"TEME","TIME_SYSTEM":"UTC","MEAN_ELEMENT_THEORY":"SGP4","EPOCH":"2026-03-20T23:44:37.264416","MEAN_MOTION":"14.63302869","ECCENTRICITY":"0.00318841","INCLINATION":"99.3783","RA_OF_ASC_NODE":"171.9785","ARG_OF_PERICENTER":"78.3624","MEAN_ANOMALY":"282.1150","EPHEMERIS_TYPE":"0","CLASSIFICATION_TYPE":"U","NORAD_CAT_ID":"36200","ELEMENT_SET_NO":"999","REV_AT_EPOCH":"74795","BSTAR":"0.00334955840000","MEAN_MOTION_DOT":"0.00017394","MEAN_MOTION_DDOT":"0.0000000000000","SEMIMAJOR_AXIS":"7060.666","PERIOD":"98.408","APOAPSIS":"705.044","PERIAPSIS":"660.019","OBJECT_TYPE":"DEBRIS","RCS_SIZE":"SMALL","COUNTRY_CODE":"PRC","LAUNCH_DATE":"1999-05-10","SITE":"TSC","DECAY_DATE":null,"FILE":"5094773","GP_ID":"316679788","TLE_LINE0":"0 FENGYUN 1C DEB","TLE_LINE1":"1 36200U 99025DTZ 26079.98932019  .00017394  00000-0  33496-2 0  9992","TLE_LINE2":"2 36200  99.3783 171.9785 0031884  78.3624 282.1150 14.63302869747957"},{"CCSDS_OMM_VERS":"3.0","COMMENT":"GENERATED VIA SPACE-TRACK.ORG API","CREATION_DATE":"2018-05-10T11:58:45","ORIGINATOR":"18 SPCS","OBJECT_NAME":"FENGYUN 1C DEB","OBJECT_ID":"1999-025DUA","CENTER_NAME":"EARTH","REF_FRAME":"TEME","TIME_SYSTEM":"UTC","MEAN_ELEMENT_THEORY":"SGP4","EPOCH":"2018-05-02T08:24:14.634432","MEAN_MOTION":"16.04353711","ECCENTRICITY":"0.00118500","INCLINATION":"99.2825","RA_OF_ASC_NODE":"268.7454","ARG_OF_PERICENTER":"341.3621","MEAN_ANOMALY":"18.7218","EPHEMERIS_TYPE":"0","CLASSIFICATION_TYPE":"U","NORAD_CAT_ID":"36201","ELEMENT_SET_NO":"999","REV_AT_EPOCH":"57133","BSTAR":"0.00072376000000","MEAN_MOTION_DOT":"0.00476027","MEAN_MOTION_DDOT":"0.0001080200000","SEMIMAJOR_AXIS":"6640.514","PERIOD":"89.755","APOAPSIS":"270.248","PERIAPSIS":"254.510","OBJECT_TYPE":"DEBRIS","RCS_SIZE":"SMALL","COUNTRY_CODE":"PRC","LAUNCH_DATE":"1999-05-10","SITE":"TSC","DECAY_DATE":"2018-05-02","FILE":"2283198","GP_ID":"120084144","TLE_LINE0":"0 FENGYUN 1C DEB","TLE_LINE1":"1 36201U 99025DUA 18122.35016938  .00476027  10802-3  72376-3 0  9994","TLE_LINE2":"2 36201  99.2825 268.7454 0011850 341.3621  18.7218 16.04353711571337"},{"CCSDS_OMM_VERS":"3.0","COMMENT":"GENERATED VIA SPACE-TRACK.ORG API","CREATION_DATE":"2014-09-24T15:02:40","ORIGINATOR":"18 SPCS","OBJECT_NAME":"FENGYUN 1C DEB","OBJECT_ID":"1999-025DUB","CENTER_NAME":"EARTH","REF_FRAME":"TEME","TIME_SYSTEM":"UTC","MEAN_ELEMENT_THEORY":"SGP4","EPOCH":"2012-11-25T05:04:22.152864","MEAN_MOTION":"14.55311159","ECCENTRICITY":"0.01291390","INCLINATION":"99.0899","RA_OF_ASC_NODE":"116.7690","ARG_OF_PERICENTER":"206.9339","MEAN_ANOMALY":"280.6804","EPHEMERIS_TYPE":"0","CLASSIFICATION_TYPE":"U","NORAD_CAT_ID":"36202","ELEMENT_SET_NO":"999","REV_AT_EPOCH":"27012","BSTAR":"0.00657990000000","MEAN_MOTION_DOT":"0.00031994","MEAN_MOTION_DDOT":"0.0000000000000","SEMIMAJOR_AXIS":"7086.495","PERIOD":"98.947","APOAPSIS":"799.875","PERIAPSIS":"616.846","OBJECT_TYPE":"DEBRIS","RCS_SIZE":"SMALL","COUNTRY_CODE":"PRC","LAUNCH_DATE":"1999-05-10","SITE":"TSC","DECAY_DATE":"2014-11-26","FILE":"1751578","GP_ID":"97072577","TLE_LINE0":"0 FENGYUN 1C DEB","TLE_LINE1":"1 36202U 99025DUB 12330.21136751  .00031994  00000-0  65799-2 0  9997","TLE_LINE2":"2 36202 099.0899 116.7690 0129139 206.9339 280.6804 14.55311159270121"},{"CCSDS_OMM_VERS":"3.0","COMMENT":"GENERATED VIA SPACE-TRACK.ORG API","CREATION_DATE":"2026-03-01T02:42:53","ORIGINATOR":"18 SPCS","OBJECT_NAME":"FENGYUN 1C DEB","OBJECT_ID":"1999-025DUC","CENTER_NAME":"EARTH","REF_FRAME":"TEME","TIME_SYSTEM":"UTC","MEAN_ELEMENT_THEORY":"SGP4","EPOCH":"2026-01-23T14:31:17.438016","MEAN_MOTION":"14.79378156","ECCENTRICITY":"0.00829551","INCLINATION":"99.1014","RA_OF_ASC_NODE":"337.8172","ARG_OF_PERICENTER":"19.5507","MEAN_ANOMALY":"340.8850","EPHEMERIS_TYPE":"0","CLASSIFICATION_TYPE":"U","NORAD_CAT_ID":"36203","ELEMENT_SET_NO":"999","REV_AT_EPOCH":"64048","BSTAR":"0.00248125550000","MEAN_MOTION_DOT":"0.00019585","MEAN_MOTION_DDOT":"0.0000000000000","SEMIMAJOR_AXIS":"7009.425","PERIOD":"97.338","APOAPSIS":"689.436","PERIAPSIS":"573.143","OBJECT_TYPE":"DEBRIS","RCS_SIZE":"SMALL","COUNTRY_CODE":"PRC","LAUNCH_DATE":"1999-05-10","SITE":"TSC","DECAY_DATE":null,"FILE":"5061557","GP_ID":"314384718","TLE_LINE0":"0 FENGYUN 1C DEB","TLE_LINE1":"1 36203U 99025DUC 26023.60506294  .00019585  00000-0  24813-2 0  9992","TLE_LINE2":"2 36203  99.1014 337.8172 0082955  19.5507 340.8850 14.79378156640488"},{"CCSDS_OMM_VERS":"3.0","COMMENT":"GENERATED VIA SPACE-TRACK.ORG API","CREATION_DATE":"2026-03-28T11:26:42","ORIGINATOR":"18 SPCS","OBJECT_NAME":"FENGYUN 1C DEB","OBJECT_ID":"1999-025DUD","CENTER_NAME":"EARTH","REF_FRAME":"TEME","TIME_SYSTEM":"UTC","MEAN_ELEMENT_THEORY":"SGP4","EPOCH":"2026-03-28T01:16:24.078144","MEAN_MOTION":"14.35365293","ECCENTRICITY":"0.00198207","INCLINATION":"99.2892","RA_OF_ASC_NODE":"197.0542","ARG_OF_PERICENTER":"213.6527","MEAN_ANOMALY":"146.3399","EPHEMERIS_TYPE":"0","CLASSIFICATION_TYPE":"U","NORAD_CAT_ID":"36204","ELEMENT_SET_NO":"999","REV_AT_EPOCH":"95938","BSTAR":"0.00109696360000","MEAN_MOTION_DOT":"0.00003105","MEAN_MOTION_DDOT":"0.0000000000000","SEMIMAJOR_AXIS":"7151.990","PERIOD":"100.323","APOAPSIS":"788.030","PERIAPSIS":"759.679","OBJECT_TYPE":"DEBRIS","RCS_SIZE":"SMALL","COUNTRY_CODE":"PRC","LAUNCH_DATE":"1999-05-10","SITE":"TSC","DECAY_DATE":null,"FILE":"5103506","GP_ID":"317398711","TLE_LINE0":"0 FENGYUN 1C DEB","TLE_LINE1":"1 36204U 99025DUD 26087.05305646  .00003105  00000-0  10970-2 0  9990","TLE_LINE2":"2 36204  99.2892 197.0542 0019821 213.6527 146.3399 14.35365293959381"}]